NORAD_CAT_ID,OBJECT_NAME,OBJECT_TYPE,EPOCH,MEAN_MOTION,ECCENTRICITY,INCLINATION,RA_OF_ASC_NODE,ARG_OF_PERICENTER,MEAN_ANOMALY,BSTAR,MEAN_MOTION_DOT,MEAN_MOTION_DDOT,TLE_LINE0,TLE_LINE1,TLE_LINE2,SEMIMAJOR_AXIS,PERIOD,APOGEE,PERIGEE,DECAYED
52360.0,STARLINK-3824,PAYLOAD,2023-01-10 21:17:29,15.0883986,0.0002689,53.2162,328.7557,22.5265,337.5845,0.00029917,4.476e-05,0.0,0 STARLINK-3824,1 52360U 22045AF  23010.88714579  .00004476  00000-0  29917-3 0  9996,2 52360  53.2162 328.7557 0002689  22.5265 337.5845 15.08839860 41728,6917.880999999999,95.438,541.606,537.886,0.0
52360.0,STARLINK-3824,PAYLOAD,2023-01-11 03:39:01,15.08849234,0.0002683,53.2163,327.5661,24.8884,335.2237,0.00037029,5.611e-05,0.0,0 STARLINK-3824,1 52360U 22045AF  23011.15210379  .00005611  00000-0  37029-3 0  9991,2 52360  53.2163 327.5661 0002683  24.8884 335.2237 15.08849234 41768,6917.852,95.437,541.573,537.861,0.0
52360.0,STARLINK-3824,PAYLOAD,2023-01-11 21:08:15,15.0885936,0.0002743,53.2159,324.2966,24.766,335.3463,0.00056174,8.668e-05,0.0,0 STARLINK-3824,1 52360U 22045AF  23011.88073823  .00008668  00000-0  56174-3 0  9999,2 52360  53.2159 324.2966 0002743  24.7660 335.3463 15.08859360 41878,6917.821,95.436,541.5840000000002,537.789,0.0
52360.0,STARLINK-3824,PAYLOAD,2023-01-12 13:02:07,15.08841062,0.0002701,53.2165,321.3208,26.6184,333.4946,-0.00010844,-2.014e-05,0.0,0 STARLINK-3824,1 52360U 22045AF  23012.54313870 -.00002014  00000-0 -10844-3 0  9997,2 52360  53.2165 321.3208 0002701  26.6184 333.4946 15.08841062 41974,6917.877,95.437,541.611,537.874,0.0
52360.0,STARLINK-3824,PAYLOAD,2023-01-13 00:09:50,15.08810453,0.0002438,53.2163,319.2387,25.7051,334.4062,-0.00063183,-0.00010322,0.0,0 STARLINK-3824,1 52360U 22045AF  23013.00683120 -.00010322  00000-0 -63183-3 0  9992,2 52360  53.2163 319.2387 0002438  25.7051 334.4062 15.08810453 42045,6917.971,95.439,541.5219999999998,538.149,0.0
52360.0,STARLINK-3824,PAYLOAD,2023-01-13 12:52:56,15.08820159,0.000198,53.2174,316.8641,39.4804,320.6332,0.00089365,0.00013955,0.0,0 STARLINK-3824,1 52360U 22045AF  23013.53676051  .00013955  00000-0  89365-3 0  9998,2 52360  53.2174 316.8641 0001980  39.4804 320.6332 15.08820159 42122,6917.941,95.439,541.1759999999999,538.436,0.0
52360.0,STARLINK-3824,PAYLOAD,2023-01-14 04:46:47,15.08873931,0.0002171999999999,53.2159,313.8887,34.471,325.6423,0.0022393,0.00035564,0.0,0 STARLINK-3824,1 52360U 22045AF  23014.19915586  .00035564  00000-0  22393-2 0  9997,2 52360  53.2159 313.8887 0002172  34.4710 325.6423 15.08873931 42222,6917.776999999999,95.435,541.144,538.139,0.0
52360.0,STARLINK-3824,PAYLOAD,2023-01-14 12:43:43,15.08851041,0.0002608,53.2149,312.3983,47.4962,312.625,0.0011311,0.00017765,0.0,0 STARLINK-3824,1 52360U 22045AF  23014.53035997  .00017765  00000-0  11311-2 0  9995,2 52360  53.2149 312.3983 0002608  47.4962 312.6250 15.08851041 42276,6917.847,95.437,541.516,537.9069999999999,0.0
52360.0,STARLINK-3824,PAYLOAD,2023-01-15 04:37:34,15.08848989,0.0001652,53.2149,309.4271,42.304,317.8079,0.0019304,0.00030576,0.0,0 STARLINK-3824,1 52360U 22045AF  23015.19276009  .00030576  00000-0  19304-2 0  9994,2 52360  53.2149 309.4271 0001652  42.3040 317.8079 15.08848989 42376,6917.853,95.437,540.861,538.575,0.0
52360.0,STARLINK-3824,PAYLOAD,2023-01-15 06:12:57,15.08851118,0.0002012,53.2143,309.1293,47.5581,312.5581,0.0019606,0.00031063,0.0,0 STARLINK-3824,1 52360U 22045AF  23015.25900149  .00031063  00000-0  19606-2 0  9997,2 52360  53.2143 309.1293 0002012  47.5581 312.5581 15.08851118 42388,6917.846,95.437,541.1030000000001,538.32,0.0
52360.0,STARLINK-3824,PAYLOAD,2023-01-16 02:52:57,15.08889772,0.0001615,53.2138,305.2632,56.1681,303.9465,0.0018029,0.00028561,0.0,0 STARLINK-3824,1 52360U 22045AF  23016.12011007  .00028561  00000-0  18029-2 0  9997,2 52360  53.2138 305.2632 0001615  56.1681 303.9465 15.08889772 42518,6917.728,95.434,540.71,538.476,0.0
52360.0,STARLINK-3824,PAYLOAD,2023-01-16 18:46:49,15.08840071,0.0001537,53.2151,302.2882,78.2657,281.8508,1.8775e-05,1.1e-07,0.0,0 STARLINK-3824,1 52360U 22045AF  23016.78251620  .00000011  00000-0  18775-4 0  9996,2 52360  53.2151 302.2882 0001537  78.2657 281.8508 15.08840071 42610,6917.88,95.438,540.808,538.682,0.0
52360.0,STARLINK-3824,PAYLOAD,2023-01-17 04:19:08,15.08816132,0.0001495,53.2133,300.5031,88.0449,272.0714,-9.2784e-05,-1.763e-05,0.0,0 STARLINK-3824,1 52360U 22045AF  23017.17996476 -.00001763  00000-0 -92784-4 0  9994,2 52360  53.2133 300.5031 0001495  88.0449 272.0714 15.08816132 42676,6917.953,95.439,540.8530000000001,538.784,0.0
52360.0,STARLINK-3824,PAYLOAD,2023-01-17 12:16:05,15.08818211,0.0001519,53.2134,299.016,91.1536,268.963,0.00083805,0.00013067,0.0,0 STARLINK-3824,1 52360U 22045AF  23017.51117301  .00013067  00000-0  83805-3 0  9995,2 52360  53.2134 299.0160 0001519  91.1536 268.9630 15.08818211 42728,6917.946999999999,95.439,540.863,538.761,0.0
52360.0,STARLINK-3824,PAYLOAD,2023-01-17 21:48:24,15.08831332,0.0001478,53.2136,297.2329,85.1485,274.9676,0.0010877,0.00017061,0.0,0 STARLINK-3824,1 52360U 22045AF  23017.90861713  .00017061  00000-0  10877-2 0  9997,2 52360  53.2136 297.2329 0001478  85.1485 274.9676 15.08831332 42789,6917.906999999999,95.438,540.794,538.749,0.0
52360.0,STARLINK-3824,PAYLOAD,2023-01-18 00:59:10,15.08842698,0.0001585,53.2136,296.6383,88.4442,271.6732,0.0013667,0.00021532,0.0,0 STARLINK-3824,1 52360U 22045AF  23018.04109642  .00021532  00000-0  13667-2 0  9997,2 52360  53.2136 296.6383 0001585  88.4442 271.6732 15.08842698 42807,6917.871999999999,95.437,540.8340000000001,538.641,0.0
52360.0,STARLINK-3824,PAYLOAD,2023-01-18 21:39:11,15.08864868,0.000147,53.2139,292.7723,117.032,243.0822,0.0015757,0.00024895,0.0,0 STARLINK-3824,1 52360U 22045AF  23018.90221227  .00024895  00000-0  15757-2 0  9993,2 52360  53.2139 292.7723 0001470 117.0320 243.0822 15.08864868 42932,6917.804,95.436,540.686,538.6519999999999,0.0
52360.0,STARLINK-3824,PAYLOAD,2023-01-19 04:00:43,15.08866423,0.0001227,53.2139,291.5822,97.0626,263.0506,0.001006,0.0001576999999999,0.0,0 STARLINK-3824,1 52360U 22045AF  23019.16716873  .00015770  00000-0  10060-2 0  9992,2 52360  53.2139 291.5822 0001227  97.0626 263.0506 15.08866423 42979,6917.8,95.436,540.513,538.816,0.0
52360.0,STARLINK-3824,PAYLOAD,2023-01-19 18:19:12,15.08842246,0.0001319,53.2134,288.9086,89.1364,270.9779,0.00048929,7.508e-05,0.0,0 STARLINK-3824,1 52360U 22045AF  23019.76333479  .00007508  00000-0  48929-3 0  9991,2 52360  53.2134 288.9086 0001319  89.1364 270.9779 15.08842246 43066,6917.874,95.437,540.651,538.826,0.0
52360.0,STARLINK-3824,PAYLOAD,2023-01-20 10:13:03,15.08835628,0.0001604,53.2133,285.9326,91.5512,268.5664,0.00038732,5.881e-05,0.0,0 STARLINK-3824,1 52360U 22045AF  23020.42573838  .00005881  00000-0  38732-3 0  9994,2 52360  53.2133 285.9326 0001604  91.5512 268.5664 15.08835628 43161,6917.894,95.438,540.868,538.649,0.0
52360.0,STARLINK-3824,PAYLOAD,2023-01-21 02:06:54,15.08862029,0.0001441999999999,53.2145,282.9616,100.3279,259.7876,0.0010425999999999,0.00016354,0.0,0 STARLINK-3824,1 52360U 22045AF  23021.08813350  .00016354  00000-0  10426-2 0  9999,2 52360  53.2145 282.9616 0001442 100.3279 259.7876 15.08862029 43265,6917.813,95.436,540.6759999999999,538.681,0.0
52360.0,STARLINK-3824,PAYLOAD,2023-01-21 10:03:50,15.08851253,0.0001464,53.2139,281.472,83.2873,276.8286,0.00059086,9.131e-05,0.0,0 STARLINK-3824,1 52360U 22045AF  23021.41933512  .00009131  00000-0  59086-3 0  9990,2 52360  53.2139 281.4720 0001464  83.2873 276.8286 15.08851253 43319,6917.846,95.437,540.724,538.698,0.0
52360.0,STARLINK-3824,PAYLOAD,2023-01-22 03:33:05,15.0884826,0.0001901,53.2144,278.2043,96.4365,263.6844,0.00039018,5.928e-05,0.0,0 STARLINK-3824,1 52360U 22045AF  23022.14797487  .00005928  00000-0  39018-3 0  9993,2 52360  53.2144 278.2043 0001901  96.4365 263.6844 15.08848260 43425,6917.855,95.437,541.035,538.405,0.0
52360.0,STARLINK-3824,PAYLOAD,2023-01-22 22:37:42,15.08839326,0.000104,53.2138,274.6341,138.6545,221.4526,0.00019016,2.7399999999999995e-05,0.0,0 STARLINK-3824,1 52360U 22045AF  23022.94285561  .00002740  00000-0  19016-3 0  9991,2 52360  53.2138 274.6341 0001040 138.6545 221.4526 15.08839326 43547,6917.882,95.438,540.467,539.028,0.0
52360.0,STARLINK-3824,PAYLOAD,2023-01-24 00:03:52,15.08860505,9.81e-05,53.2128,269.874,78.0576,282.0526,0.00082676,0.00012902,0.0,0 STARLINK-3824,1 52360U 22045AF  23024.00269305  .00012902  00000-0  82676-3 0  9991,2 52360  53.2128 269.8740 0000981  78.0576 282.0526 15.08860505 43703,6917.818,95.436,540.361,539.004,0.0
52360.0,STARLINK-3824,PAYLOAD,2023-01-25 01:30:02,15.08851278,0.0001159,53.2126,265.1156,71.4895,288.6223,0.00057462,8.872e-05,0.0,0 STARLINK-3824,1 52360U 22045AF  23025.06253344  .00008872  00000-0  57462-3 0  9990,2 52360  53.2126 265.1156 0001159  71.4895 288.6223 15.08851278 43860,6917.846,95.437,540.513,538.909,0.0
52360.0,STARLINK-3824,PAYLOAD,2023-01-25 09:26:58,15.08842841,0.000126,53.2117,263.6287,68.2269,291.8857,0.00029975,4.486e-05,0.0,0 STARLINK-3824,1 52360U 22045AF  23025.39373466  .00004486  00000-0  29975-3 0  9999,2 52360  53.2117 263.6287 0001260  68.2269 291.8857 15.08842841 43911,6917.871999999999,95.437,540.6080000000001,538.865,0.0
52360.0,STARLINK-3824,PAYLOAD,2023-01-26 01:20:50,15.08841304,0.0001358,53.2128,260.6528,88.9638,271.1509,0.00016484,2.337e-05,0.0,0 STARLINK-3824,1 52360U 22045AF  23026.05613642  .00002337  00000-0  16484-3 0  9990,2 52360  53.2128 260.6528 0001358  88.9638 271.1509 15.08841304 44015,6917.876,95.437,540.681,538.802,0.0
52360.0,STARLINK-3824,PAYLOAD,2023-01-27 13:54:42,15.08838621,0.0001319,53.212,253.815,88.7636,271.3507,8.682299999999999e-05,1.094e-05,0.0,0 STARLINK-3824,1 52360U 22045AF  23027.57965822  .00001094  00000-0  86823-4 0  9992,2 52360  53.2120 253.8150 0001319  88.7636 271.3507 15.08838621 44248,6917.885,95.438,540.6619999999999,538.837,0.0
